*******************************************************************************
Ephemeris / WWW_USER Mon Mar 24 06:40:19 2025 Pasadena, USA      / Horizons    
*******************************************************************************
Target body name: (2017 SN16)                     {source: JPL#20}
Center body name: Earth (399)                     {source: DE441}
Center-site name: Gemini South Obs., Cerro Pachon
*******************************************************************************
Start time      : A.D. 2018-Sep-29 22:51:00.0000 UT      
Stop  time      : A.D. 2018-Sep-30 10:14:00.0000 UT      
Step-size       : 1 minutes
*******************************************************************************
Target pole/equ : undefined
Target radii    : undefined                                                    
Center geodetic : 289.2634, -30.2406227, 2.71233  {E-lon(deg),Lat(deg),Alt(km)}
Center cylindric: 289.2634,5517.21435,-3194.81213 {E-lon(deg),Dxy(km),Dz(km)}
Center pole/equ : ITRF93                          {East-longitude positive}
Center radii    : 6378.137, 6378.137, 6356.752 km {Equator_a, b, pole_c}       
Target primary  : Sun
Vis. interferer : MOON (R_eq= 1737.400) km        {source: DE441}
Rel. light bend : Sun                             {source: DE441}
Rel. lght bnd GM: 1.3271E+11 km^3/s^2                                          
Small-body perts: Yes                             {source: SB441-N16}
Atmos refraction: NO (AIRLESS)
RA format       : HMS
Time format     : CAL 
Calendar mode   : Mixed Julian/Gregorian
RTS-only print  : NO       
EOP file        : eop.250321.p250617                                           
EOP coverage    : DATA-BASED 1962-JAN-20 TO 2025-MAR-21. PREDICTS-> 2025-JUN-16
Units conversion: 1 au= 149597870.700 km, c= 299792.458 km/s, 1 day= 86400.0 s 
Table cut-offs 1: Elevation (-90.0deg=NO ),Airmass (>38.000=NO), Daylight (YES)
Table cut-offs 2: Solar elongation (  0.0,180.0=NO ),Local Hour Angle( 0.0=NO )
Table cut-offs 3: RA/DEC angular rate (     0.0=NO )                           
*******************************************************************************
Initial IAU76/J2000 heliocentric ecliptic osculating elements (au, days, deg.):
  EPOCH=  2458305.5 ! 2018-Jul-06.00 (TDB)         Residual RMS= .23751        
   EC= .1454884975659386   QR= .8682464985612274   TP= 2458145.5722438502      
   OM= 2.759719470837934   W=  137.1017088998531   IN= 13.38264682844635       
  Equivalent ICRF heliocentric cartesian coordinates (au, au/d):
   X= 5.756755401261899E-01  Y=-7.953424559592890E-01  Z=-6.031561894536019E-01
  VX= 1.332076113263395E-02 VY= 5.454663564585547E-03 VZ= 3.896229736425836E-03
Asteroid physical parameters (km, seconds, rotational period in hours):        
   GM= n.a.                RAD= n.a.               ROTPER= n.a.                
   H= 23.34                G= .150                 B-V= n.a.                   
                           ALBEDO= n.a.            STYP= n.a.                  
*******************************************************************************
 Date__(UT)__HR:MN     R.A._________(ICRF)_________DEC
******************************************************
$$SOE
 2018-Sep-30 02:57     22 46 51.654307 -04 41 18.95765
 2018-Sep-30 02:58     22 46 51.362443 -04 41 16.00733
 2018-Sep-30 02:59     22 46 51.070583 -04 41 13.05691
 2018-Sep-30 03:00     22 46 50.778729 -04 41 10.10639
 2018-Sep-30 03:01     22 46 50.486879 -04 41 07.15576
 2018-Sep-30 03:02     22 46 50.195036 -04 41 04.20504
 2018-Sep-30 03:03     22 46 49.903198 -04 41 01.25422
 2018-Sep-30 03:04     22 46 49.611366 -04 40 58.30329
 2018-Sep-30 03:05     22 46 49.319541 -04 40 55.35227
 2018-Sep-30 03:06     22 46 49.027723 -04 40 52.40114
 2018-Sep-30 03:07     22 46 48.735912 -04 40 49.44992
 2018-Sep-30 03:08     22 46 48.444109 -04 40 46.49859
 2018-Sep-30 03:09     22 46 48.152314 -04 40 43.54717
 2018-Sep-30 03:10  m  22 46 47.860527 -04 40 40.59564
 2018-Sep-30 03:11  m  22 46 47.568750 -04 40 37.64401
 2018-Sep-30 03:12  m  22 46 47.276981 -04 40 34.69229
 2018-Sep-30 03:13  m  22 46 46.985222 -04 40 31.74046
 2018-Sep-30 03:14  m  22 46 46.693473 -04 40 28.78854
 2018-Sep-30 03:15  m  22 46 46.401734 -04 40 25.83651
 2018-Sep-30 03:16  m  22 46 46.110006 -04 40 22.88438
 2018-Sep-30 03:17  m  22 46 45.818289 -04 40 19.93216
 2018-Sep-30 03:18  m  22 46 45.526583 -04 40 16.97983
 2018-Sep-30 03:19  m  22 46 45.234889 -04 40 14.02741
 2018-Sep-30 03:20  m  22 46 44.943207 -04 40 11.07489
 2018-Sep-30 03:21  m  22 46 44.651537 -04 40 08.12227
 2018-Sep-30 03:22  m  22 46 44.359880 -04 40 05.16954
 2018-Sep-30 03:23  m  22 46 44.068236 -04 40 02.21672
 2018-Sep-30 03:24  m  22 46 43.776606 -04 39 59.26381
 2018-Sep-30 03:25  m  22 46 43.484990 -04 39 56.31079
 2018-Sep-30 03:26  m  22 46 43.193388 -04 39 53.35767
 2018-Sep-30 03:27  m  22 46 42.901800 -04 39 50.40446
 2018-Sep-30 03:28  m  22 46 42.610228 -04 39 47.45115
 2018-Sep-30 03:29  m  22 46 42.318670 -04 39 44.49774
 2018-Sep-30 03:30  m  22 46 42.027129 -04 39 41.54423
 2018-Sep-30 03:31  m  22 46 41.735603 -04 39 38.59062
 2018-Sep-30 03:32  m  22 46 41.444094 -04 39 35.63692
 2018-Sep-30 03:33  m  22 46 41.152602 -04 39 32.68311
 2018-Sep-30 03:34  m  22 46 40.861126 -04 39 29.72921
 2018-Sep-30 03:35  m  22 46 40.569668 -04 39 26.77522
 2018-Sep-30 03:36  m  22 46 40.278228 -04 39 23.82112
 2018-Sep-30 03:37  m  22 46 39.986807 -04 39 20.86693
 2018-Sep-30 03:38  m  22 46 39.695403 -04 39 17.91264
 2018-Sep-30 03:39  m  22 46 39.404019 -04 39 14.95826
 2018-Sep-30 03:40  m  22 46 39.112654 -04 39 12.00378
 2018-Sep-30 03:41  m  22 46 38.821308 -04 39 09.04920
 2018-Sep-30 03:42  m  22 46 38.529983 -04 39 06.09452
 2018-Sep-30 03:43  m  22 46 38.238677 -04 39 03.13975
 2018-Sep-30 03:44  m  22 46 37.947393 -04 39 00.18489
 2018-Sep-30 03:45  m  22 46 37.656129 -04 38 57.22992
 2018-Sep-30 03:46  m  22 46 37.364887 -04 38 54.27486
 2018-Sep-30 03:47  m  22 46 37.073667 -04 38 51.31971
 2018-Sep-30 03:48  m  22 46 36.782468 -04 38 48.36446
 2018-Sep-30 03:49  m  22 46 36.491292 -04 38 45.40911
 2018-Sep-30 03:50  m  22 46 36.200139 -04 38 42.45367
 2018-Sep-30 03:51  m  22 46 35.909009 -04 38 39.49814
 2018-Sep-30 03:52  m  22 46 35.617903 -04 38 36.54251
 2018-Sep-30 03:53  m  22 46 35.326820 -04 38 33.58678
 2018-Sep-30 03:54  m  22 46 35.035762 -04 38 30.63096
 2018-Sep-30 03:55  m  22 46 34.744728 -04 38 27.67505
 2018-Sep-30 03:56  m  22 46 34.453719 -04 38 24.71904
 2018-Sep-30 03:57  m  22 46 34.162736 -04 38 21.76294
 2018-Sep-30 03:58  m  22 46 33.871778 -04 38 18.80675
 2018-Sep-30 03:59  m  22 46 33.580846 -04 38 15.85046
 2018-Sep-30 04:00  m  22 46 33.289940 -04 38 12.89407
 2018-Sep-30 04:01  m  22 46 32.999061 -04 38 09.93760
 2018-Sep-30 04:02  m  22 46 32.708209 -04 38 06.98103
 2018-Sep-30 04:03  m  22 46 32.417384 -04 38 04.02437
 2018-Sep-30 04:04  m  22 46 32.126587 -04 38 01.06761
 2018-Sep-30 04:05  m  22 46 31.835818 -04 37 58.11076
 2018-Sep-30 04:06  m  22 46 31.545078 -04 37 55.15383
 2018-Sep-30 04:07  m  22 46 31.254366 -04 37 52.19679
 2018-Sep-30 04:08  m  22 46 30.963683 -04 37 49.23967
 2018-Sep-30 04:09  m  22 46 30.673030 -04 37 46.28245
 2018-Sep-30 04:10  m  22 46 30.382407 -04 37 43.32515
 2018-Sep-30 04:11  m  22 46 30.091813 -04 37 40.36775
 2018-Sep-30 04:12  m  22 46 29.801250 -04 37 37.41026
 2018-Sep-30 04:13  m  22 46 29.510718 -04 37 34.45268
 2018-Sep-30 04:14  m  22 46 29.220218 -04 37 31.49501
 2018-Sep-30 04:15  m  22 46 28.929748 -04 37 28.53725
 2018-Sep-30 04:16  m  22 46 28.639311 -04 37 25.57939
 2018-Sep-30 04:17  m  22 46 28.348905 -04 37 22.62145
 2018-Sep-30 04:18  m  22 46 28.058532 -04 37 19.66342
 2018-Sep-30 04:19  m  22 46 27.768192 -04 37 16.70530
 2018-Sep-30 04:20  m  22 46 27.477885 -04 37 13.74708
 2018-Sep-30 04:21  m  22 46 27.187612 -04 37 10.78878
 2018-Sep-30 04:22  m  22 46 26.897373 -04 37 07.83039
 2018-Sep-30 04:23  m  22 46 26.607167 -04 37 04.87191
 2018-Sep-30 04:24  m  22 46 26.316997 -04 37 01.91335
 2018-Sep-30 04:25  m  22 46 26.026861 -04 36 58.95469
 2018-Sep-30 04:26  m  22 46 25.736760 -04 36 55.99595
 2018-Sep-30 04:27  m  22 46 25.446695 -04 36 53.03711
 2018-Sep-30 04:28  m  22 46 25.156666 -04 36 50.07819
 2018-Sep-30 04:29  m  22 46 24.866673 -04 36 47.11919
 2018-Sep-30 04:30  m  22 46 24.576717 -04 36 44.16009
 2018-Sep-30 04:31  m  22 46 24.286798 -04 36 41.20091
 2018-Sep-30 04:32  m  22 46 23.996915 -04 36 38.24164
 2018-Sep-30 04:33  m  22 46 23.707071 -04 36 35.28228
 2018-Sep-30 04:34  m  22 46 23.417264 -04 36 32.32284
 2018-Sep-30 04:35  m  22 46 23.127495 -04 36 29.36331
 2018-Sep-30 04:36  m  22 46 22.837765 -04 36 26.40370
 2018-Sep-30 04:37  m  22 46 22.548074 -04 36 23.44400
 2018-Sep-30 04:38  m  22 46 22.258422 -04 36 20.48422
 2018-Sep-30 04:39  m  22 46 21.968810 -04 36 17.52435
 2018-Sep-30 04:40  m  22 46 21.679237 -04 36 14.56439
 2018-Sep-30 04:41  m  22 46 21.389705 -04 36 11.60435
 2018-Sep-30 04:42  m  22 46 21.100213 -04 36 08.64423
 2018-Sep-30 04:43  m  22 46 20.810762 -04 36 05.68402
 2018-Sep-30 04:44  m  22 46 20.521352 -04 36 02.72372
 2018-Sep-30 04:45  m  22 46 20.231983 -04 35 59.76335
 2018-Sep-30 04:46  m  22 46 19.942656 -04 35 56.80289
 2018-Sep-30 04:47  m  22 46 19.653372 -04 35 53.84235
 2018-Sep-30 04:48  m  22 46 19.364130 -04 35 50.88172
 2018-Sep-30 04:49  m  22 46 19.074930 -04 35 47.92101
 2018-Sep-30 04:50  m  22 46 18.785774 -04 35 44.96022
 2018-Sep-30 04:51  m  22 46 18.496661 -04 35 41.99935
 2018-Sep-30 04:52  m  22 46 18.207592 -04 35 39.03839
 2018-Sep-30 04:53  m  22 46 17.918566 -04 35 36.07736
 2018-Sep-30 04:54  m  22 46 17.629586 -04 35 33.11624
 2018-Sep-30 04:55  m  22 46 17.340649 -04 35 30.15504
 2018-Sep-30 04:56  m  22 46 17.051758 -04 35 27.19376
 2018-Sep-30 04:57  m  22 46 16.762912 -04 35 24.23240
 2018-Sep-30 04:58  m  22 46 16.474112 -04 35 21.27096
 2018-Sep-30 04:59  m  22 46 16.185357 -04 35 18.30944
